{"type": "FeatureCollection", "features": [ {"type": "Feature", "properties": {"norad_id": 66386, "name": "STARLINK-35651", "group": "last-30-days", "lat": -37.8261912909566, "lon": -105.15887969582967, "alt_km": 452.41849425083456, "timestamp": "2025-12-07T05:38:08.683118+00:00", "meta": {"OBJECT_NAME": "STARLINK-35651", "OBJECT_ID": "2025-257G", "EPOCH": "2025-12-06T14:00:01.999872", "MEAN_MOTION": 15.39630338, "ECCENTRICITY": 0.00012174, "INCLINATION": 53.1608, "RA_OF_ASC_NODE": 293.5078, "ARG_OF_PERICENTER": 86.3877, "MEAN_ANOMALY": 210.8786, "EPHEMERIS_TYPE": 0, "CLASSIFICATION_TYPE": "U", "NORAD_CAT_ID": 66386, "ELEMENT_SET_NO": 999, "REV_AT_EPOCH": 550, "BSTAR": -0.0020409721, "MEAN_MOTION_DOT": -0.000812, "MEAN_MOTION_DDOT": 0}, "tle": {"line1": "1 66386U 25257G   25340.58335648 -.00081200  00000+0 -20410-2 0  9997", "line2": "2 66386  53.1608 293.5078 0001217  86.3877 210.8786 15.39630338  5501"}}, "geometry": {"type": "Point", "coordinates": [-105.15887969582967, -37.8261912909566]}}, {"type": "Feature", "properties": {"norad_id": 66387, "name": "STARLINK-35661", "group": "last-30-days", "lat": -36.63039533194826, "lon": -103.44148621806022, "alt_km": 452.64229892044295, "timestamp": "2025-12-07T05:38:08.683129+00:00", "meta": {"OBJECT_NAME": "STARLINK-35661", "OBJECT_ID": "2025-257H", "EPOCH": "2025-12-06T14:00:01.999872", "MEAN_MOTION": 15.39661844, "ECCENTRICITY": 0.00016751, "INCLINATION": 53.1608, "RA_OF_ASC_NODE": 293.5043, "ARG_OF_PERICENTER": 88.3573, "MEAN_ANOMALY": 210.7151, "EPHEMERIS_TYPE": 0, "CLASSIFICATION_TYPE": "U", "NORAD_CAT_ID": 66387, "ELEMENT_SET_NO": 999, "REV_AT_EPOCH": 550, "BSTAR": -0.0029477117, "MEAN_MOTION_DOT": -0.00116683, "MEAN_MOTION_DDOT": 0}, "tle": {"line1": "1 66387U 25257H   25340.58335648 -.00116683  00000+0 -29477-2 0  9994", "line2": "2 66387  53.1608 293.5043 0001675  88.3573 210.7151 15.39661844  5508"}}, "geometry": {"type": "Point", "coordinates": [-103.44148621806022, -36.63039533194826]}}, {"type": "Feature", "properties": {"norad_id": 66388, "name": "STARLINK-35647", "group": "last-30-days", "lat": -19.294932688141976, "lon": -84.83025454390274, "alt_km": 451.47518270614455, "timestamp": "2025-12-07T05:38:08.683140+00:00", "meta": {"OBJECT_NAME": "STARLINK-35647", "OBJECT_ID": "2025-257J", "EPOCH": "2025-12-06T14:00:01.999872", "MEAN_MOTION": 15.39727978, "ECCENTRICITY": 0.00014833, "INCLINATION": 53.1603, "RA_OF_ASC_NODE": 293.4566, "ARG_OF_PERICENTER": 92.8954, "MEAN_ANOMALY": 230.1093, "EPHEMERIS_TYPE": 0, "CLASSIFICATION_TYPE": "U", "NORAD_CAT_ID": 66388, "ELEMENT_SET_NO": 999, "REV_AT_EPOCH": 550, "BSTAR": -0.006780548, "MEAN_MOTION_DOT": -0.00263404, "MEAN_MOTION_DDOT": 0}, "tle": {"line1": "1 66388U 25257J   25340.58335648 -.00263404  00000+0 -67805-2 0  9996", "line2": "2 66388  53.1603 293.4566 0001483  92.8954 230.1093 15.39727978  5505"}}, "geometry": {"type": "Point", "coordinates": [-84.83025454390274, -19.294932688141976]}}, {"type": "Feature", "properties": {"norad_id": 66389, "name": "STARLINK-35694", "group": "last-30-days", "lat": 2.637877179101105, "lon": -67.69020878952078, "alt_km": 448.2726828848263, "timestamp": "2025-12-07T05:38:08.683150+00:00", "meta": {"OBJECT_NAME": "STARLINK-35694", "OBJECT_ID": "2025-257K", "EPOCH": "2025-12-06T14:00:01.999872", "MEAN_MOTION": 15.39552039, "ECCENTRICITY": 0.0001756, "INCLINATION": 53.1596, "RA_OF_ASC_NODE": 293.4007, "ARG_OF_PERICENTER": 113.243, "MEAN_ANOMALY": 237.3944, "EPHEMERIS_TYPE": 0, "CLASSIFICATION_TYPE": "U", "NORAD_CAT_ID": 66389, "ELEMENT_SET_NO": 999, "REV_AT_EPOCH": 550, "BSTAR": 0.0010425626, "MEAN_MOTION_DOT": 0.00041436, "MEAN_MOTION_DDOT": 0}, "tle": {"line1": "1 66389U 25257K   25340.58335648  .00041436  00000+0  10426-2 0  9991", "line2": "2 66389  53.1596 293.4007 0001756 113.2430 237.3944 15.39552039  5505"}}, "geometry": {"type": "Point", "coordinates": [-67.69020878952078, 2.637877179101105]}}, {"type": "Feature", "properties": {"norad_id": 66390, "name": "STARLINK-35665", "group": "last-30-days", "lat": 34.40643584518927, "lon": 79.16764979709727, "alt_km": 413.16138770802354, "timestamp": "2025-12-07T05:38:08.683162+00:00", "meta": {"OBJECT_NAME": "STARLINK-35665", "OBJECT_ID": "2025-257L", "EPOCH": "2025-12-06T04:17:12.780096", "MEAN_MOTION": 15.49341653, "ECCENTRICITY": 0.00011183, "INCLINATION": 53.1591, "RA_OF_ASC_NODE": 295.1167, "ARG_OF_PERICENTER": 82.6759, "MEAN_ANOMALY": 277.4377, "EPHEMERIS_TYPE": 0, "CLASSIFICATION_TYPE": "U", "NORAD_CAT_ID": 66390, "ELEMENT_SET_NO": 999, "REV_AT_EPOCH": 546, "BSTAR": 0.0018780257, "MEAN_MOTION_DOT": 0.00105543, "MEAN_MOTION_DDOT": 0}, "tle": {"line1": "1 66390U 25257L   25340.17862014  .00105543  00000+0  18780-2 0  9991", "line2": "2 66390  53.1591 295.1167 0001118  82.6759 277.4377 15.49341653  5462"}}, "geometry": {"type": "Point", "coordinates": [79.16764979709727, 34.40643584518927]}}, {"type": "Feature", "properties": {"norad_id": 66391, "name": "STARLINK-35656", "group": "last-30-days", "lat": 11.038972506492705, "lon": -61.295650495252175, "alt_km": 440.03587898943897, "timestamp": "2025-12-07T05:38:08.683175+00:00", "meta": {"OBJECT_NAME": "STARLINK-35656", "OBJECT_ID": "2025-257M", "EPOCH": "2025-12-05T03:46:18.556608", "MEAN_MOTION": 15.40317588, "ECCENTRICITY": 9.833e-05, "INCLINATION": 53.1603, "RA_OF_ASC_NODE": 300.1096, "ARG_OF_PERICENTER": 171.4639, "MEAN_ANOMALY": 188.6383, "EPHEMERIS_TYPE": 0, "CLASSIFICATION_TYPE": "U", "NORAD_CAT_ID": 66391, "ELEMENT_SET_NO": 999, "REV_AT_EPOCH": 530, "BSTAR": 0.0098522303, "MEAN_MOTION_DOT": 0.00426205, "MEAN_MOTION_DDOT": 0}, "tle": {"line1": "1 66391U 25257M   25339.15715922  .00426205  00000+0  98522-2 0  9996", "line2": "2 66391  53.1603 300.1096 0000983 171.4639 188.6383 15.40317588  5302"}}, "geometry": {"type": "Point", "coordinates": [-61.295650495252175, 11.038972506492705]}}, {"type": "Feature", "properties": {"norad_id": 66392, "name": "STARLINK-35671", "group": "last-30-days", "lat": -17.885576770065157, "lon": -83.61920029321965, "alt_km": 451.63335587354686, "timestamp": "2025-12-07T05:38:08.683186+00:00", "meta": {"OBJECT_NAME": "STARLINK-35671", "OBJECT_ID": "2025-257N", "EPOCH": "2025-12-06T14:00:01.999872", "MEAN_MOTION": 15.39738246, "ECCENTRICITY": 0.00019634, "INCLINATION": 53.1603, "RA_OF_ASC_NODE": 293.4521, "ARG_OF_PERICENTER": 98.5523, "MEAN_ANOMALY": 226.2854, "EPHEMERIS_TYPE": 0, "CLASSIFICATION_TYPE": "U", "NORAD_CAT_ID": 66392, "ELEMENT_SET_NO": 999, "REV_AT_EPOCH": 550, "BSTAR": -0.0072967239, "MEAN_MOTION_DOT": -0.00282829, "MEAN_MOTION_DDOT": 0}, "tle": {"line1": "1 66392U 25257N   25340.58335648 -.00282829  00000+0 -72967-2 0  9998", "line2": "2 66392  53.1603 293.4521 0001963  98.5523 226.2854 15.39738246  5500"}}, "geometry": {"type": "Point", "coordinates": [-83.61920029321965, -17.885576770065157]}}, {"type": "Feature", "properties": {"norad_id": 66393, "name": "STARLINK-35652", "group": "last-30-days", "lat": 21.469245331407876, "lon": -52.5682876565078, "alt_km": 444.6121460942759, "timestamp": "2025-12-07T05:38:08.683197+00:00", "meta": {"OBJECT_NAME": "STARLINK-35652", "OBJECT_ID": "2025-257P", "EPOCH": "2025-12-06T14:00:01.999872", "MEAN_MOTION": 15.39564496, "ECCENTRICITY": 0.00017993, "INCLINATION": 53.1591, "RA_OF_ASC_NODE": 293.3527, "ARG_OF_PERICENTER": 98.6412, "MEAN_ANOMALY": 275.8755, "EPHEMERIS_TYPE": 0, "CLASSIFICATION_TYPE": "U", "NORAD_CAT_ID": 66393, "ELEMENT_SET_NO": 999, "REV_AT_EPOCH": 550, "BSTAR": 0.0010949439, "MEAN_MOTION_DOT": 0.00043568, "MEAN_MOTION_DDOT": 0}, "tle": {"line1": "1 66393U 25257P   25340.58335648  .00043568  00000+0  10949-2 0  9994", "line2": "2 66393  53.1591 293.3527 0001799  98.6412 275.8755 15.39564496  5501"}}, "geometry": {"type": "Point", "coordinates": [-52.5682876565078, 21.469245331407876]}}, {"type": "Feature", "properties": {"norad_id": 66394, "name": "STARLINK-35672", "group": "last-30-days", "lat": 22.881483220886913, "lon": -51.276486829198426, "alt_km": 444.12556439988293, "timestamp": "2025-12-07T05:38:08.683207+00:00", "meta": {"OBJECT_NAME": "STARLINK-35672", "OBJECT_ID": "2025-257Q", "EPOCH": "2025-12-06T14:00:01.999872", "MEAN_MOTION": 15.39571701, "ECCENTRICITY": 0.00016097, "INCLINATION": 53.1592, "RA_OF_ASC_NODE": 293.3477, "ARG_OF_PERICENTER": 85.107, "MEAN_ANOMALY": 291.2377, "EPHEMERIS_TYPE": 0, "CLASSIFICATION_TYPE": "U", "NORAD_CAT_ID": 66394, "ELEMENT_SET_NO": 999, "REV_AT_EPOCH": 550, "BSTAR": 0.001144702, "MEAN_MOTION_DOT": 0.00045589, "MEAN_MOTION_DDOT": 0}, "tle": {"line1": "1 66394U 25257Q   25340.58335648  .00045589  00000+0  11447-2 0  9994", "line2": "2 66394  53.1592 293.3477 0001609  85.1070 291.2377 15.39571701  5507"}}, "geometry": {"type": "Point", "coordinates": [-51.276486829198426, 22.881483220886913]}}, {"type": "Feature", "properties": {"norad_id": 66395, "name": "STARLINK-35681", "group": "last-30-days", "lat": 39.593077900327025, "lon": -31.445884248372714, "alt_km": 442.9904138299571, "timestamp": "2025-12-07T05:38:08.683217+00:00", "meta": {"OBJECT_NAME": "STARLINK-35681", "OBJECT_ID": "2025-257R", "EPOCH": "2025-12-06T14:00:01.999872", "MEAN_MOTION": 15.39921494, "ECCENTRICITY": 0.00012212, "INCLINATION": 53.1589, "RA_OF_ASC_NODE": 293.3017, "ARG_OF_PERICENTER": 127.2752, "MEAN_ANOMALY": 272.8379, "EPHEMERIS_TYPE": 0, "CLASSIFICATION_TYPE": "U", "NORAD_CAT_ID": 66395, "ELEMENT_SET_NO": 999, "REV_AT_EPOCH": 534, "BSTAR": -0.013395332, "MEAN_MOTION_DOT": -0.00507062, "MEAN_MOTION_DDOT": 0}, "tle": {"line1": "1 66395U 25257R   25340.58335648 -.00507062  00000+0 -13395-1 0  9999", "line2": "2 66395  53.1589 293.3017 0001221 127.2752 272.8379 15.39921494  5346"}}, "geometry": {"type": "Point", "coordinates": [-31.445884248372714, 39.593077900327025]}}]}